ORBCOMM-X               
1 21576U 91050C   25317.63417752  .00000961  00000+0  29727-3 0  9994
2 21576  98.3268  21.0650 0004840  94.9690 265.2053 14.43400932803673
ORBCOMM FM01            
1 23545U 95017A   25317.80584303  .00019527  00000+0  19036-2 0  9994
2 23545  69.9628  60.4959 0001005  16.7879 343.3310 14.92470976634816
ORBCOMM FM02            
1 23546U 95017B   25317.64140360  .00024497  00000+0  23017-2 0  9994
2 23546  69.9634  79.6987 0002049  66.8374 293.2998 14.93869013634452
ORBCOMM FM08            
1 25112U 97084A   25317.54462316  .00005531  00000+0  15619-2 0  9995
2 25112  45.0144  10.5949 0008197 276.9279  83.0640 14.46433771462997
ORBCOMM FM10            
1 25113U 97084B   25317.47953191  .00004963  00000+0  14130-2 0  9999
2 25113  45.0157  13.5593 0006911 250.0407 109.9700 14.46193822638123
ORBCOMM FM11            
1 25114U 97084C   25317.57943473  .00004946  00000+0  14158-2 0  9994
2 25114  45.0142  13.9880 0007750 251.9069 108.0938 14.45935256463096
ORBCOMM FM12            
1 25115U 97084D   25317.53985650  .00005142  00000+0  14697-2 0  9991
2 25115  45.0149  13.9137 0006811 249.4593 110.5528 14.45957986462883
ORBCOMM FM09            
1 25116U 97084E   25317.58590603  .00004970  00000+0  14262-2 0  9993
2 25116  45.0154  14.7836 0007969 241.0802 118.9250 14.45810132463090
