<?xml version="1.0" encoding="UTF-8"?>
<ndm xmlns:xsi="http://www.w3.org/2001/XMLSchema-instance" xsi:noNamespaceSchemaLocation="https://sanaregistry.org/r/ndmxml_unqualified/ndmxml-2.0.0-master-2.0.xsd">
<omm id="CCSDS_OMM_VERS" version="2.0">
<header><CREATION_DATE/><ORIGINATOR/></header><body><segment><metadata><OBJECT_NAME>ORBCOMM-X</OBJECT_NAME><OBJECT_ID>1991-050C</OBJECT_ID><CENTER_NAME>EARTH</CENTER_NAME><REF_FRAME>TEME</REF_FRAME><TIME_SYSTEM>UTC</TIME_SYSTEM><MEAN_ELEMENT_THEORY>SGP4</MEAN_ELEMENT_THEORY></metadata><data><meanElements><EPOCH>2025-11-13T15:13:12.937728</EPOCH><MEAN_MOTION>14.43400932</MEAN_MOTION><ECCENTRICITY>.000484</ECCENTRICITY><INCLINATION>98.3268</INCLINATION><RA_OF_ASC_NODE>21.0650</RA_OF_ASC_NODE><ARG_OF_PERICENTER>94.9690</ARG_OF_PERICENTER><MEAN_ANOMALY>265.2053</MEAN_ANOMALY></meanElements><tleParameters><EPHEMERIS_TYPE>0</EPHEMERIS_TYPE><CLASSIFICATION_TYPE>U</CLASSIFICATION_TYPE><NORAD_CAT_ID>21576</NORAD_CAT_ID><ELEMENT_SET_NO>999</ELEMENT_SET_NO><REV_AT_EPOCH>80367</REV_AT_EPOCH><BSTAR>.29727E-3</BSTAR><MEAN_MOTION_DOT>.961E-5</MEAN_MOTION_DOT><MEAN_MOTION_DDOT>0</MEAN_MOTION_DDOT></tleParameters></data></segment></body></omm>
<omm id="CCSDS_OMM_VERS" version="2.0">
<header><CREATION_DATE/><ORIGINATOR/></header><body><segment><metadata><OBJECT_NAME>ORBCOMM FM01</OBJECT_NAME><OBJECT_ID>1995-017A</OBJECT_ID><CENTER_NAME>EARTH</CENTER_NAME><REF_FRAME>TEME</REF_FRAME><TIME_SYSTEM>UTC</TIME_SYSTEM><MEAN_ELEMENT_THEORY>SGP4</MEAN_ELEMENT_THEORY></metadata><data><meanElements><EPOCH>2025-11-13T19:20:24.837792</EPOCH><MEAN_MOTION>14.92470976</MEAN_MOTION><ECCENTRICITY>.0001005</ECCENTRICITY><INCLINATION>69.9628</INCLINATION><RA_OF_ASC_NODE>60.4959</RA_OF_ASC_NODE><ARG_OF_PERICENTER>16.7879</ARG_OF_PERICENTER><MEAN_ANOMALY>343.3310</MEAN_ANOMALY></meanElements><tleParameters><EPHEMERIS_TYPE>0</EPHEMERIS_TYPE><CLASSIFICATION_TYPE>U</CLASSIFICATION_TYPE><NORAD_CAT_ID>23545</NORAD_CAT_ID><ELEMENT_SET_NO>999</ELEMENT_SET_NO><REV_AT_EPOCH>63481</REV_AT_EPOCH><BSTAR>.19036E-2</BSTAR><MEAN_MOTION_DOT>.19527E-3</MEAN_MOTION_DOT><MEAN_MOTION_DDOT>0</MEAN_MOTION_DDOT></tleParameters></data></segment></body></omm>
<omm id="CCSDS_OMM_VERS" version="2.0">
<header><CREATION_DATE/><ORIGINATOR/></header><body><segment><metadata><OBJECT_NAME>ORBCOMM FM02</OBJECT_NAME><OBJECT_ID>1995-017B</OBJECT_ID><CENTER_NAME>EARTH</CENTER_NAME><REF_FRAME>TEME</REF_FRAME><TIME_SYSTEM>UTC</TIME_SYSTEM><MEAN_ELEMENT_THEORY>SGP4</MEAN_ELEMENT_THEORY></metadata><data><meanElements><EPOCH>2025-11-13T15:23:37.271040</EPOCH><MEAN_MOTION>14.93869013</MEAN_MOTION><ECCENTRICITY>.0002049</ECCENTRICITY><INCLINATION>69.9634</INCLINATION><RA_OF_ASC_NODE>79.6987</RA_OF_ASC_NODE><ARG_OF_PERICENTER>66.8374</ARG_OF_PERICENTER><MEAN_ANOMALY>293.2998</MEAN_ANOMALY></meanElements><tleParameters><EPHEMERIS_TYPE>0</EPHEMERIS_TYPE><CLASSIFICATION_TYPE>U</CLASSIFICATION_TYPE><NORAD_CAT_ID>23546</NORAD_CAT_ID><ELEMENT_SET_NO>999</ELEMENT_SET_NO><REV_AT_EPOCH>63445</REV_AT_EPOCH><BSTAR>.23017E-2</BSTAR><MEAN_MOTION_DOT>.24497E-3</MEAN_MOTION_DOT><MEAN_MOTION_DDOT>0</MEAN_MOTION_DDOT></tleParameters></data></segment></body></omm>
<omm id="CCSDS_OMM_VERS" version="2.0">
<header><CREATION_DATE/><ORIGINATOR/></header><body><segment><metadata><OBJECT_NAME>ORBCOMM FM08</OBJECT_NAME><OBJECT_ID>1997-084A</OBJECT_ID><CENTER_NAME>EARTH</CENTER_NAME><REF_FRAME>TEME</REF_FRAME><TIME_SYSTEM>UTC</TIME_SYSTEM><MEAN_ELEMENT_THEORY>SGP4</MEAN_ELEMENT_THEORY></metadata><data><meanElements><EPOCH>2025-11-13T13:04:15.441024</EPOCH><MEAN_MOTION>14.46433771</MEAN_MOTION><ECCENTRICITY>.0008197</ECCENTRICITY><INCLINATION>45.0144</INCLINATION><RA_OF_ASC_NODE>10.5949</RA_OF_ASC_NODE><ARG_OF_PERICENTER>276.9279</ARG_OF_PERICENTER><MEAN_ANOMALY>83.0640</MEAN_ANOMALY></meanElements><tleParameters><EPHEMERIS_TYPE>0</EPHEMERIS_TYPE><CLASSIFICATION_TYPE>U</CLASSIFICATION_TYPE><NORAD_CAT_ID>25112</NORAD_CAT_ID><ELEMENT_SET_NO>999</ELEMENT_SET_NO><REV_AT_EPOCH>46299</REV_AT_EPOCH><BSTAR>.15619E-2</BSTAR><MEAN_MOTION_DOT>.5531E-4</MEAN_MOTION_DOT><MEAN_MOTION_DDOT>0</MEAN_MOTION_DDOT></tleParameters></data></segment></body></omm>
<omm id="CCSDS_OMM_VERS" version="2.0">
<header><CREATION_DATE/><ORIGINATOR/></header><body><segment><metadata><OBJECT_NAME>ORBCOMM FM10</OBJECT_NAME><OBJECT_ID>1997-084B</OBJECT_ID><CENTER_NAME>EARTH</CENTER_NAME><REF_FRAME>TEME</REF_FRAME><TIME_SYSTEM>UTC</TIME_SYSTEM><MEAN_ELEMENT_THEORY>SGP4</MEAN_ELEMENT_THEORY></metadata><data><meanElements><EPOCH>2025-11-13T11:30:31.557024</EPOCH><MEAN_MOTION>14.46193822</MEAN_MOTION><ECCENTRICITY>.0006911</ECCENTRICITY><INCLINATION>45.0157</INCLINATION><RA_OF_ASC_NODE>13.5593</RA_OF_ASC_NODE><ARG_OF_PERICENTER>250.0407</ARG_OF_PERICENTER><MEAN_ANOMALY>109.9700</MEAN_ANOMALY></meanElements><tleParameters><EPHEMERIS_TYPE>0</EPHEMERIS_TYPE><CLASSIFICATION_TYPE>U</CLASSIFICATION_TYPE><NORAD_CAT_ID>25113</NORAD_CAT_ID><ELEMENT_SET_NO>999</ELEMENT_SET_NO><REV_AT_EPOCH>63812</REV_AT_EPOCH><BSTAR>.1413E-2</BSTAR><MEAN_MOTION_DOT>.4963E-4</MEAN_MOTION_DOT><MEAN_MOTION_DDOT>0</MEAN_MOTION_DDOT></tleParameters></data></segment></body></omm>
<omm id="CCSDS_OMM_VERS" version="2.0">
<header><CREATION_DATE/><ORIGINATOR/></header><body><segment><metadata><OBJECT_NAME>ORBCOMM FM11</OBJECT_NAME><OBJECT_ID>1997-084C</OBJECT_ID><CENTER_NAME>EARTH</CENTER_NAME><REF_FRAME>TEME</REF_FRAME><TIME_SYSTEM>UTC</TIME_SYSTEM><MEAN_ELEMENT_THEORY>SGP4</MEAN_ELEMENT_THEORY></metadata><data><meanElements><EPOCH>2025-11-13T13:54:23.160672</EPOCH><MEAN_MOTION>14.45935256</MEAN_MOTION><ECCENTRICITY>.000775</ECCENTRICITY><INCLINATION>45.0142</INCLINATION><RA_OF_ASC_NODE>13.9880</RA_OF_ASC_NODE><ARG_OF_PERICENTER>251.9069</ARG_OF_PERICENTER><MEAN_ANOMALY>108.0938</MEAN_ANOMALY></meanElements><tleParameters><EPHEMERIS_TYPE>0</EPHEMERIS_TYPE><CLASSIFICATION_TYPE>U</CLASSIFICATION_TYPE><NORAD_CAT_ID>25114</NORAD_CAT_ID><ELEMENT_SET_NO>999</ELEMENT_SET_NO><REV_AT_EPOCH>46309</REV_AT_EPOCH><BSTAR>.14158E-2</BSTAR><MEAN_MOTION_DOT>.4946E-4</MEAN_MOTION_DOT><MEAN_MOTION_DDOT>0</MEAN_MOTION_DDOT></tleParameters></data></segment></body></omm>
<omm id="CCSDS_OMM_VERS" version="2.0">
<header><CREATION_DATE/><ORIGINATOR/></header><body><segment><metadata><OBJECT_NAME>ORBCOMM FM12</OBJECT_NAME><OBJECT_ID>1997-084D</OBJECT_ID><CENTER_NAME>EARTH</CENTER_NAME><REF_FRAME>TEME</REF_FRAME><TIME_SYSTEM>UTC</TIME_SYSTEM><MEAN_ELEMENT_THEORY>SGP4</MEAN_ELEMENT_THEORY></metadata><data><meanElements><EPOCH>2025-11-13T12:57:23.601600</EPOCH><MEAN_MOTION>14.45957986</MEAN_MOTION><ECCENTRICITY>.0006811</ECCENTRICITY><INCLINATION>45.0149</INCLINATION><RA_OF_ASC_NODE>13.9137</RA_OF_ASC_NODE><ARG_OF_PERICENTER>249.4593</ARG_OF_PERICENTER><MEAN_ANOMALY>110.5528</MEAN_ANOMALY></meanElements><tleParameters><EPHEMERIS_TYPE>0</EPHEMERIS_TYPE><CLASSIFICATION_TYPE>U</CLASSIFICATION_TYPE><NORAD_CAT_ID>25115</NORAD_CAT_ID><ELEMENT_SET_NO>999</ELEMENT_SET_NO><REV_AT_EPOCH>46288</REV_AT_EPOCH><BSTAR>.14697E-2</BSTAR><MEAN_MOTION_DOT>.5142E-4</MEAN_MOTION_DOT><MEAN_MOTION_DDOT>0</MEAN_MOTION_DDOT></tleParameters></data></segment></body></omm>
<omm id="CCSDS_OMM_VERS" version="2.0">
<header><CREATION_DATE/><ORIGINATOR/></header><body><segment><metadata><OBJECT_NAME>ORBCOMM FM09</OBJECT_NAME><OBJECT_ID>1997-084E</OBJECT_ID><CENTER_NAME>EARTH</CENTER_NAME><REF_FRAME>TEME</REF_FRAME><TIME_SYSTEM>UTC</TIME_SYSTEM><MEAN_ELEMENT_THEORY>SGP4</MEAN_ELEMENT_THEORY></metadata><data><meanElements><EPOCH>2025-11-13T14:03:42.280992</EPOCH><MEAN_MOTION>14.45810132</MEAN_MOTION><ECCENTRICITY>.0007969</ECCENTRICITY><INCLINATION>45.0154</INCLINATION><RA_OF_ASC_NODE>14.7836</RA_OF_ASC_NODE><ARG_OF_PERICENTER>241.0802</ARG_OF_PERICENTER><MEAN_ANOMALY>118.9250</MEAN_ANOMALY></meanElements><tleParameters><EPHEMERIS_TYPE>0</EPHEMERIS_TYPE><CLASSIFICATION_TYPE>U</CLASSIFICATION_TYPE><NORAD_CAT_ID>25116</NORAD_CAT_ID><ELEMENT_SET_NO>999</ELEMENT_SET_NO><REV_AT_EPOCH>46309</REV_AT_EPOCH><BSTAR>.14262E-2</BSTAR><MEAN_MOTION_DOT>.497E-4</MEAN_MOTION_DOT><MEAN_MOTION_DDOT>0</MEAN_MOTION_DDOT></tleParameters></data></segment></body></omm>

</ndm>
